ONEWEB-0378             
1 49304U 21090AB  26081.06339486  .00000119  00000+0  26184-3 0  9992
2 49304  87.9147 291.8414 0001548  88.7472 271.3839 13.20771157218289
ONEWEB-0379             
1 49305U 21090AC  26081.18746002 -.00000167  00000+0 -48507-3 0  9990
2 49305  87.8968 307.0705 0001537  86.3326 273.7979 13.14505083216132
ONEWEB-0380             
1 49306U 21090AD  26081.22326295  .00000057  00000+0  11010-3 0  9999
2 49306  87.9208 322.3076 0001592  74.2902 285.8407 13.19725435214957
ONEWEB-0381             
1 49307U 21090AE  26081.11376724 -.00000024  00000+0 -90473-4 0  9997
2 49307  87.9153 291.8258 0001410  87.4389 272.6905 13.20770936218334
ONEWEB-0382             
1 49308U 21090AF  26081.10113730  .00000032  00000+0  47731-4 0  9999
2 49308  87.9152 291.8245 0001388  92.2281 267.9011 13.20770588218326
ONEWEB-0383             
1 49309U 21090AG  26081.18111208 -.00000125  00000+0 -37251-3 0  9996
2 49309  87.8967 307.0580 0001539  89.4321 270.6985 13.14503550216160
ONEWEB-0384             
1 49310U 21090AH  26081.09213222  .00000028  00000+0  36854-4 0  9996
2 49310  87.9153 291.8693 0001293 101.3984 258.7295 13.20808460218338
ONEWEB-0385             
1 49311U 21090AJ  26081.09325449  .00000011  00000+0 -45392-5 0  9993
2 49311  87.9151 291.8306 0001471  89.7978 270.3324 13.20772188218305
ONEWEB-0386             
1 49312U 21090AK  26080.88334126  .00000018  00000+0  11701-4 0  9994
2 49312  87.9156 291.8576 0001482  93.4346 266.6957 13.20771277218299
ONEWEB-0387             
1 49313U 21090AL  26081.09482504  .00000087  00000+0  18234-3 0  9996
2 49313  87.9142 291.8512 0001494  79.6363 280.4939 13.20770486218322
ONEWEB-0388             
1 49314U 21090AM  26081.21852256  .00000067  00000+0  13468-3 0  9998
2 49314  87.9210 322.3056 0001585  83.3888 276.7425 13.19725441214948
ONEWEB-0389             
1 50469U 21132A   26081.25180385  .00000061  00000+0  12421-3 0  9991
2 50469  87.9166  23.1317 0001519  72.3853 287.7444 13.17650783206638
ONEWEB-0390             
1 50470U 21132B   26081.10162157  .00000047  00000+0  87503-4 0  9992
2 50470  87.9169  23.1619 0002012  73.4765 286.6588 13.17648290206616
ONEWEB-0391             
1 50471U 21132C   26081.25517904  .00000088  00000+0  19453-3 0  9996
2 50471  87.9169  23.1403 0001540  52.4820 307.6451 13.17650640206639
ONEWEB-0392             
1 50472U 21132D   26081.20962111  .00000102  00000+0  22915-3 0  9990
2 50472  87.9178  23.1111 0001569  70.1016 290.0284 13.17650169206669
ONEWEB-0393             
1 50473U 21132E   26081.25936199 -.00031346  00000+0 -81473-1 0  9991
2 50473  87.9180  23.1243 0001715  70.3806 289.7510 13.17290176206666
ONEWEB-0394             
1 50474U 21132F   26081.21925855  .00000132  00000+0  30234-3 0  9993
2 50474  87.9251 352.7193 0001583  76.8490 283.2819 13.18687708210134
