[{"OBJECT_NAME":"ONEWEB-0378","OBJECT_ID":"2021-090AB","EPOCH":"2026-03-22T01:31:17.315904","MEAN_MOTION":13.20771157,"ECCENTRICITY":0.00015486,"INCLINATION":87.9147,"RA_OF_ASC_NODE":291.8414,"ARG_OF_PERICENTER":88.7472,"MEAN_ANOMALY":271.3839,"EPHEMERIS_TYPE":0,"CLASSIFICATION_TYPE":"U","NORAD_CAT_ID":49304,"ELEMENT_SET_NO":999,"REV_AT_EPOCH":21828,"BSTAR":0.00026184268,"MEAN_MOTION_DOT":1.19e-6,"MEAN_MOTION_DDOT":0},{"OBJECT_NAME":"ONEWEB-0379","OBJECT_ID":"2021-090AC","EPOCH":"2026-03-22T04:29:56.545728","MEAN_MOTION":13.14505083,"ECCENTRICITY":0.00015371,"INCLINATION":87.8968,"RA_OF_ASC_NODE":307.0705,"ARG_OF_PERICENTER":86.3326,"MEAN_ANOMALY":273.7979,"EPHEMERIS_TYPE":0,"CLASSIFICATION_TYPE":"U","NORAD_CAT_ID":49305,"ELEMENT_SET_NO":999,"REV_AT_EPOCH":21613,"BSTAR":-0.00048507351,"MEAN_MOTION_DOT":-1.67e-6,"MEAN_MOTION_DDOT":0},{"OBJECT_NAME":"ONEWEB-0380","OBJECT_ID":"2021-090AD","EPOCH":"2026-03-22T05:21:29.918880","MEAN_MOTION":13.19725435,"ECCENTRICITY":0.00015923,"INCLINATION":87.9208,"RA_OF_ASC_NODE":322.3076,"ARG_OF_PERICENTER":74.2902,"MEAN_ANOMALY":285.8407,"EPHEMERIS_TYPE":0,"CLASSIFICATION_TYPE":"U","NORAD_CAT_ID":49306,"ELEMENT_SET_NO":999,"REV_AT_EPOCH":21495,"BSTAR":0.00011009622,"MEAN_MOTION_DOT":5.7e-7,"MEAN_MOTION_DDOT":0},{"OBJECT_NAME":"ONEWEB-0381","OBJECT_ID":"2021-090AE","EPOCH":"2026-03-22T02:43:49.489536","MEAN_MOTION":13.20770936,"ECCENTRICITY":0.00014105,"INCLINATION":87.9153,"RA_OF_ASC_NODE":291.8258,"ARG_OF_PERICENTER":87.4389,"MEAN_ANOMALY":272.6905,"EPHEMERIS_TYPE":0,"CLASSIFICATION_TYPE":"U","NORAD_CAT_ID":49307,"ELEMENT_SET_NO":999,"REV_AT_EPOCH":21833,"BSTAR":-9.0473101e-5,"MEAN_MOTION_DOT":-2.4e-7,"MEAN_MOTION_DDOT":0},{"OBJECT_NAME":"ONEWEB-0382","OBJECT_ID":"2021-090AF","EPOCH":"2026-03-22T02:25:38.262720","MEAN_MOTION":13.20770588,"ECCENTRICITY":0.0001388,"INCLINATION":87.9152,"RA_OF_ASC_NODE":291.8245,"ARG_OF_PERICENTER":92.2281,"MEAN_ANOMALY":267.9011,"EPHEMERIS_TYPE":0,"CLASSIFICATION_TYPE":"U","NORAD_CAT_ID":49308,"ELEMENT_SET_NO":999,"REV_AT_EPOCH":21832,"BSTAR":4.7730632e-5,"MEAN_MOTION_DOT":3.2e-7,"MEAN_MOTION_DDOT":0},{"OBJECT_NAME":"ONEWEB-0383","OBJECT_ID":"2021-090AG","EPOCH":"2026-03-22T04:20:48.083712","MEAN_MOTION":13.1450355,"ECCENTRICITY":0.00015395,"INCLINATION":87.8967,"RA_OF_ASC_NODE":307.058,"ARG_OF_PERICENTER":89.4321,"MEAN_ANOMALY":270.6985,"EPHEMERIS_TYPE":0,"CLASSIFICATION_TYPE":"U","NORAD_CAT_ID":49309,"ELEMENT_SET_NO":999,"REV_AT_EPOCH":21616,"BSTAR":-0.00037251494,"MEAN_MOTION_DOT":-1.25e-6,"MEAN_MOTION_DDOT":0},{"OBJECT_NAME":"ONEWEB-0384","OBJECT_ID":"2021-090AH","EPOCH":"2026-03-22T02:12:40.223808","MEAN_MOTION":13.2080846,"ECCENTRICITY":0.00012931,"INCLINATION":87.9153,"RA_OF_ASC_NODE":291.8693,"ARG_OF_PERICENTER":101.3984,"MEAN_ANOMALY":258.7295,"EPHEMERIS_TYPE":0,"CLASSIFICATION_TYPE":"U","NORAD_CAT_ID":49310,"ELEMENT_SET_NO":999,"REV_AT_EPOCH":21833,"BSTAR":3.6854442e-5,"MEAN_MOTION_DOT":2.8e-7,"MEAN_MOTION_DDOT":0},{"OBJECT_NAME":"ONEWEB-0385","OBJECT_ID":"2021-090AJ","EPOCH":"2026-03-22T02:14:17.187936","MEAN_MOTION":13.20772188,"ECCENTRICITY":0.00014711,"INCLINATION":87.9151,"RA_OF_ASC_NODE":291.8306,"ARG_OF_PERICENTER":89.7978,"MEAN_ANOMALY":270.3324,"EPHEMERIS_TYPE":0,"CLASSIFICATION_TYPE":"U","NORAD_CAT_ID":49311,"ELEMENT_SET_NO":999,"REV_AT_EPOCH":21830,"BSTAR":-4.539175e-6,"MEAN_MOTION_DOT":1.1e-7,"MEAN_MOTION_DDOT":0},{"OBJECT_NAME":"ONEWEB-0386","OBJECT_ID":"2021-090AK","EPOCH":"2026-03-21T21:12:00.684864","MEAN_MOTION":13.20771277,"ECCENTRICITY":0.00014822,"INCLINATION":87.9156,"RA_OF_ASC_NODE":291.8576,"ARG_OF_PERICENTER":93.4346,"MEAN_ANOMALY":266.6957,"EPHEMERIS_TYPE":0,"CLASSIFICATION_TYPE":"U","NORAD_CAT_ID":49312,"ELEMENT_SET_NO":999,"REV_AT_EPOCH":21829,"BSTAR":1.1701069e-5,"MEAN_MOTION_DOT":1.8e-7,"MEAN_MOTION_DDOT":0},{"OBJECT_NAME":"ONEWEB-0387","OBJECT_ID":"2021-090AL","EPOCH":"2026-03-22T02:16:32.883456","MEAN_MOTION":13.20770486,"ECCENTRICITY":0.0001494,"INCLINATION":87.9142,"RA_OF_ASC_NODE":291.8512,"ARG_OF_PERICENTER":79.6363,"MEAN_ANOMALY":280.4939,"EPHEMERIS_TYPE":0,"CLASSIFICATION_TYPE":"U","NORAD_CAT_ID":49313,"ELEMENT_SET_NO":999,"REV_AT_EPOCH":21832,"BSTAR":0.00018234342,"MEAN_MOTION_DOT":8.7e-7,"MEAN_MOTION_DDOT":0},{"OBJECT_NAME":"ONEWEB-0388","OBJECT_ID":"2021-090AM","EPOCH":"2026-03-22T05:14:40.349184","MEAN_MOTION":13.19725441,"ECCENTRICITY":0.0001585,"INCLINATION":87.921,"RA_OF_ASC_NODE":322.3056,"ARG_OF_PERICENTER":83.3888,"MEAN_ANOMALY":276.7425,"EPHEMERIS_TYPE":0,"CLASSIFICATION_TYPE":"U","NORAD_CAT_ID":49314,"ELEMENT_SET_NO":999,"REV_AT_EPOCH":21494,"BSTAR":0.00013467816,"MEAN_MOTION_DOT":6.7e-7,"MEAN_MOTION_DDOT":0},{"OBJECT_NAME":"ONEWEB-0389","OBJECT_ID":"2021-132A","EPOCH":"2026-03-22T06:02:35.852640","MEAN_MOTION":13.17650783,"ECCENTRICITY":0.00015193,"INCLINATION":87.9166,"RA_OF_ASC_NODE":23.1317,"ARG_OF_PERICENTER":72.3853,"MEAN_ANOMALY":287.7444,"EPHEMERIS_TYPE":0,"CLASSIFICATION_TYPE":"U","NORAD_CAT_ID":50469,"ELEMENT_SET_NO":999,"REV_AT_EPOCH":20663,"BSTAR":0.0001242099,"MEAN_MOTION_DOT":6.1e-7,"MEAN_MOTION_DDOT":0},{"OBJECT_NAME":"ONEWEB-0390","OBJECT_ID":"2021-132B","EPOCH":"2026-03-22T02:26:20.103648","MEAN_MOTION":13.1764829,"ECCENTRICITY":0.00020122,"INCLINATION":87.9169,"RA_OF_ASC_NODE":23.1619,"ARG_OF_PERICENTER":73.4765,"MEAN_ANOMALY":286.6588,"EPHEMERIS_TYPE":0,"CLASSIFICATION_TYPE":"U","NORAD_CAT_ID":50470,"ELEMENT_SET_NO":999,"REV_AT_EPOCH":20661,"BSTAR":8.7503193e-5,"MEAN_MOTION_DOT":4.7e-7,"MEAN_MOTION_DDOT":0},{"OBJECT_NAME":"ONEWEB-0391","OBJECT_ID":"2021-132C","EPOCH":"2026-03-22T06:07:27.469056","MEAN_MOTION":13.1765064,"ECCENTRICITY":0.00015404,"INCLINATION":87.9169,"RA_OF_ASC_NODE":23.1403,"ARG_OF_PERICENTER":52.482,"MEAN_ANOMALY":307.6451,"EPHEMERIS_TYPE":0,"CLASSIFICATION_TYPE":"U","NORAD_CAT_ID":50471,"ELEMENT_SET_NO":999,"REV_AT_EPOCH":20663,"BSTAR":0.00019452899,"MEAN_MOTION_DOT":8.8e-7,"MEAN_MOTION_DDOT":0},{"OBJECT_NAME":"ONEWEB-0392","OBJECT_ID":"2021-132D","EPOCH":"2026-03-22T05:01:51.263904","MEAN_MOTION":13.17650169,"ECCENTRICITY":0.00015694,"INCLINATION":87.9178,"RA_OF_ASC_NODE":23.1111,"ARG_OF_PERICENTER":70.1016,"MEAN_ANOMALY":290.0284,"EPHEMERIS_TYPE":0,"CLASSIFICATION_TYPE":"U","NORAD_CAT_ID":50472,"ELEMENT_SET_NO":999,"REV_AT_EPOCH":20666,"BSTAR":0.00022915074,"MEAN_MOTION_DOT":1.02e-6,"MEAN_MOTION_DDOT":0},{"OBJECT_NAME":"ONEWEB-0393","OBJECT_ID":"2021-132E","EPOCH":"2026-03-22T06:13:28.875936","MEAN_MOTION":13.17290176,"ECCENTRICITY":0.0001715,"INCLINATION":87.918,"RA_OF_ASC_NODE":23.1243,"ARG_OF_PERICENTER":70.3806,"MEAN_ANOMALY":289.751,"EPHEMERIS_TYPE":0,"CLASSIFICATION_TYPE":"U","NORAD_CAT_ID":50473,"ELEMENT_SET_NO":999,"REV_AT_EPOCH":20666,"BSTAR":-0.081472641,"MEAN_MOTION_DOT":-0.00031346,"MEAN_MOTION_DDOT":0},{"OBJECT_NAME":"ONEWEB-0394","OBJECT_ID":"2021-132F","EPOCH":"2026-03-22T05:15:43.938720","MEAN_MOTION":13.18687708,"ECCENTRICITY":0.00015837,"INCLINATION":87.9251,"RA_OF_ASC_NODE":352.7193,"ARG_OF_PERICENTER":76.849,"MEAN_ANOMALY":283.2819,"EPHEMERIS_TYPE":0,"CLASSIFICATION_TYPE":"U","NORAD_CAT_ID":50474,"ELEMENT_SET_NO":999,"REV_AT_EPOCH":21013,"BSTAR":0.0003023352,"MEAN_MOTION_DOT":1.32e-6,"MEAN_MOTION_DDOT":0}]
